STARLINK-1080
1 14961C 20001AZ  21326.16390916 -.00021500  00000-0 -14405-2 0  3266
2 14961  53.0523 148.0085 0002026  72.2684 184.4385 15.06419055    19
